NORAD_CAT_ID,OBJECT_NAME,OBJECT_TYPE,EPOCH,MEAN_MOTION,ECCENTRICITY,INCLINATION,RA_OF_ASC_NODE,ARG_OF_PERICENTER,MEAN_ANOMALY,BSTAR,MEAN_MOTION_DOT,MEAN_MOTION_DDOT,TLE_LINE0,TLE_LINE1,TLE_LINE2,SEMIMAJOR_AXIS,PERIOD,APOGEE,PERIGEE,DECAYED
49725.0,STARLINK-3218,PAYLOAD,2022-03-09 12:00:00,15.08863222,0.0001768,53.2172,228.638,55.3689,79.1125,-0.0029503,-0.00046966,0.0,0 STARLINK-3218,1 49725U 21115B   22068.50001157 -.00046966  00000-0 -29503-2 0  9998,2 49725  53.2172 228.6380 0001768  55.3689  79.1125 15.08863222 16050,6917.809,95.436,540.8969999999998,538.451,0.0
49725.0,STARLINK-3218,PAYLOAD,2022-03-09 14:00:01,15.08858442,0.0001783,53.2171,228.2646,53.0312,174.3537,-0.0033706,-0.0005356,0.0,0 STARLINK-3218,1 49725U 21115B   22068.58334491 -.00053560  00000-0 -33706-2 0  9994,2 49725  53.2171 228.2646 0001783  53.0312 174.3537 15.08858442  3616,6917.824000000001,95.436,540.922,538.456,0.0
49725.0,STARLINK-3218,PAYLOAD,2022-03-09 22:00:01,15.08809203,0.0001874,53.2166,226.7693,47.0662,191.978,0.0025544,0.00040566,0.0,0 STARLINK-3218,1 49725U 21115B   22068.91668981  .00040566  00000-0  25544-2 0  9996,2 49725  53.2166 226.7693 0001874  47.0662 191.9780 15.08809203  3590,6917.975,95.44,541.136,538.543,0.0
49725.0,STARLINK-3218,PAYLOAD,2022-03-10 04:00:01,15.08833,0.000173,53.2165,225.6456,51.6125,106.1125,-0.00041027,-6.809999999999999e-05,0.0,0 STARLINK-3218,1 49725U 21115B   22069.16668981 -.00006810  00000-0 -41027-3 0  9995,2 49725  53.2165 225.6456 0001730  51.6125 106.1125 15.08833000 16160,6917.901999999999,95.438,540.964,538.57,0.0
49725.0,STARLINK-3218,PAYLOAD,2022-03-10 14:00:01,15.08851892,0.0001784,53.2164,223.7759,52.8957,209.2444,-0.0014284,-0.00022957,0.0,0 STARLINK-3218,1 49725U 21115B   22069.58334491 -.00022957  00000-0 -14284-2 0  9991,2 49725  53.2164 223.7759 0001784  52.8957 209.2444 15.08851892  3567,6917.844,95.437,540.943,538.475,0.0
49725.0,STARLINK-3218,PAYLOAD,2022-03-10 20:00:01,15.08819567,0.0001902,53.2163,222.6546,48.1836,132.66299999999998,0.0027663,0.00043988,0.0,0 STARLINK-3218,1 49725U 21115B   22069.83334491  .00043988  00000-0  27663-2 0  9999,2 49725  53.2163 222.6546 0001902  48.1836 132.6630 15.08819567 16264,6917.943,95.439,541.124,538.492,0.0
49725.0,STARLINK-3218,PAYLOAD,2022-03-10 22:00:01,15.08829887,0.0001888,53.2159,222.2803,47.6376,226.1661,0.0020297,0.00032154,0.0,0 STARLINK-3218,1 49725U 21115B   22069.91668981  .00032154  00000-0  20297-2 0  9991,2 49725  53.2159 222.2803 0001888  47.6376 226.1661 15.08829887  3598,6917.911,95.438,541.082,538.47,0.0
49725.0,STARLINK-3218,PAYLOAD,2022-03-11 12:00:00,15.08862397,0.0001874,53.2161,219.6605,56.0164,148.0374,-0.0020644,-0.00033014,0.0,0 STARLINK-3218,1 49725U 21115B   22070.50001157 -.00033014  00000-0 -20644-2 0  9998,2 49725  53.2161 219.6605 0001874  56.0164 148.0374 15.08862397 16360,6917.812,95.436,540.9730000000002,538.381,0.0
49725.0,STARLINK-3218,PAYLOAD,2022-03-11 14:00:01,15.08854167,0.0001933,53.2159,219.2869,54.1468,242.8124,-0.0016465999999999,-0.00026409,0.0,0 STARLINK-3218,1 49725U 21115B   22070.58334491 -.00026409  00000-0 -16466-2 0  9993,2 49725  53.2159 219.2869 0001933  54.1468 242.8124 15.08854167  3578,6917.837,95.437,541.039,538.365,0.0
49725.0,STARLINK-3218,PAYLOAD,2022-03-11 22:00:00,15.08839413,0.0002005,53.2155,217.7912,49.104,259.4598,0.0017218,0.00027221,0.0,0 STARLINK-3218,1 49725U 21115B   22070.91667824  .00027221  00000-0  17218-2 0  9996,2 49725  53.2155 217.7912 0002005  49.1040 259.4598 15.08839413  3584,6917.882,95.438,541.134,538.36,0.0
49725.0,STARLINK-3218,PAYLOAD,2022-03-12 04:00:00,15.08860826,0.0001855,53.2158,216.6674,52.472,174.7963,-0.0021099,-0.0003373,0.0,0 STARLINK-3218,1 49725U 21115B   22071.16667824 -.00033730  00000-0 -21099-2 0  9990,2 49725  53.2158 216.6674 0001855  52.4720 174.7963 15.08860826 16462,6917.816999999999,95.436,540.965,538.398,0.0
49725.0,STARLINK-3218,PAYLOAD,2022-03-12 14:00:01,15.08842459,0.0001924,53.2158,214.7978,51.3718,280.3518,-0.0015499,-0.00024872,0.0,0 STARLINK-3218,1 49725U 21115B   22071.58334491 -.00024872  00000-0 -15499-2 0  9991,2 49725  53.2158 214.7978 0001924  51.3718 280.3518 15.08842459  3592,6917.873000000001,95.437,541.069,538.4069999999998,0.0
49725.0,STARLINK-3218,PAYLOAD,2022-03-12 20:00:01,15.08823662,0.0002035,53.2159,213.6765,46.8395,203.6014,0.0037726,0.0006024,0.0,0 STARLINK-3218,1 49725U 21115B   22071.83334491  .00060240  00000-0  37726-2 0  9993,2 49725  53.2159 213.6765 0002035  46.8395 203.6014 15.08823662 16564,6917.93,95.439,541.203,538.388,0.0
49725.0,STARLINK-3218,PAYLOAD,2022-03-12 22:00:00,15.08846982,0.0002005,53.2157,213.302,46.0813,297.2526,0.0014981,0.00023639,0.0,0 STARLINK-3218,1 49725U 21115B   22071.91667824  .00023639  00000-0  14981-2 0  9990,2 49725  53.2157 213.3020 0002005  46.0813 297.2526 15.08846982  3593,6917.859,95.437,541.111,538.337,0.0
49725.0,STARLINK-3218,PAYLOAD,2022-03-13 04:00:00,15.08744565,0.0001926,53.2174,212.1862,50.1734,211.8269,0.0084117,0.00135821,0.0,0 STARLINK-3218,1 49725U 21115B   22072.16667824  .00135821  00000-0  84117-2 0  9993,2 49725  53.2174 212.1862 0001926  50.1734 211.8269 15.08744565 16619,6918.172,95.444,541.37,538.705,0.0
49725.0,STARLINK-3218,PAYLOAD,2022-03-13 12:00:00,15.0884223,0.0001831,53.2163,210.6824,48.9191,224.6423,-0.00075078,-0.00012218,0.0,0 STARLINK-3218,1 49725U 21115B   22072.50001157 -.00012218  00000-0 -75078-3 0  9995,2 49725  53.2163 210.6824 0001831  48.9191 224.6423 15.08842230 16662,6917.874,95.437,541.005,538.472,0.0
49725.0,STARLINK-3218,PAYLOAD,2022-03-13 14:00:01,15.08843112,0.0001899,53.2162,210.3088,46.8055,319.6538,-0.0010854,-0.00017522,0.0,0 STARLINK-3218,1 49725U 21115B   22072.58334491 -.00017522  00000-0 -10854-2 0  9996,2 49725  53.2162 210.3088 0001899  46.8055 319.6538 15.08843112  3613,6917.871,95.437,541.05,538.422,0.0
49725.0,STARLINK-3218,PAYLOAD,2022-03-13 22:00:01,15.08838669,0.0001961,53.2161,208.8128,42.3312,335.7768,0.00078413,0.00012213,0.0,0 STARLINK-3218,1 49725U 21115B   22072.91668981  .00012213  00000-0  78413-3 0  9993,2 49725  53.2161 208.8128 0001961  42.3312 335.7768 15.08838669  3600,6917.884,95.438,541.106,538.393,0.0
49725.0,STARLINK-3218,PAYLOAD,2022-03-14 04:00:00,15.08854444,0.0001797,53.2166,207.6892,45.598,251.1621,1.1971e-05,-9.8e-07,0.0,0 STARLINK-3218,1 49725U 21115B   22073.16667824 -.00000098  00000-0  11971-4 0  9992,2 49725  53.2166 207.6892 0001797  45.5980 251.1621 15.08854444 16762,6917.8359999999975,95.437,540.944,538.4580000000002,0.0
49725.0,STARLINK-3218,PAYLOAD,2022-03-14 14:00:01,15.08865787,0.0001908,53.2168,205.8196,42.7803,358.5675,-0.00021191,-3.662e-05,0.0,0 STARLINK-3218,1 49725U 21115B   22073.58335648 -.00003662  00000-0 -21191-3 0  9999,2 49725  53.2168 205.8196 0001908  42.7803 358.5675 15.08865787  3598,6917.802,95.436,540.986,538.347,0.0
49725.0,STARLINK-3218,PAYLOAD,2022-03-14 20:00:01,15.08849282,0.0001923,53.2168,204.6981,38.9981,280.9968,0.0020199,0.00032014,0.0,0 STARLINK-3218,1 49725U 21115B   22073.83334491  .00032014  00000-0  20199-2 0  9999,2 49725  53.2168 204.6981 0001923  38.9981 280.9968 15.08849282  3560,6917.852,95.437,541.047,538.387,0.0
49725.0,STARLINK-3218,PAYLOAD,2022-03-15 02:00:01,15.08887145,0.0001739,53.2172,203.5743,40.112,198.5948,-0.0053688,-0.00084838,0.0,0 STARLINK-3218,1 49725U 21115B   22074.08334491 -.00084838  00000-0 -53688-2 0  9999,2 49725  53.2172 203.5743 0001739  40.1120 198.5948 15.08887145 16908,6917.736,95.435,540.804,538.398,0.0
49725.0,STARLINK-3218,PAYLOAD,2022-03-15 20:00:01,15.08771294,0.0001901,53.2173,200.209,37.1264,317.6253,0.0026407,0.0004191,0.0,0 STARLINK-3218,1 49725U 21115B   22074.83334491  .00041910  00000-0  26407-2 0  9993,2 49725  53.2173 200.2090 0001901  37.1264 317.6253 15.08771294 17017,6918.09,95.442,541.271,538.64,0.0
49725.0,STARLINK-3218,PAYLOAD,2022-03-15 22:00:00,15.08795422,0.0001887,53.2172,199.8345,37.8199,49.8072,-0.00010871,-2.016e-05,0.0,0 STARLINK-3218,1 49725U 21115B   22074.91667824 -.00002016  00000-0 -10871-3 0  9996,2 49725  53.2172 199.8345 0001887  37.8199  49.8072 15.08795422  3588,6918.017,95.44,541.187,538.576,0.0
49725.0,STARLINK-3218,PAYLOAD,2022-03-16 12:00:00,15.08830435,0.0001837,53.2179,197.2158,44.0584,333.7612,0.00015541,2.186e-05,0.0,0 STARLINK-3218,1 49725U 21115B   22075.50001157  .00002186  00000-0  15541-3 0  9998,2 49725  53.2179 197.2158 0001837  44.0584 333.7612 15.08830435 17115,6917.91,95.438,541.045,538.504,0.0
49725.0,STARLINK-3218,PAYLOAD,2022-03-16 14:00:01,15.08835974,0.0001921,53.2177,196.8422,43.3743,67.3392,-0.0004595,-7.593e-05,0.0,0 STARLINK-3218,1 49725U 21115B   22075.58334491 -.00007593  00000-0 -45950-3 0  9992,2 49725  53.2177 196.8422 0001921  43.3743  67.3392 15.08835974  3590,6917.893,95.438,541.087,538.429,0.0
49725.0,STARLINK-3218,PAYLOAD,2022-03-16 20:00:01,15.08827908,0.0001969,53.2175,195.7203,40.0865,349.3196,0.0020499,0.00032476,0.0,0 STARLINK-3218,1 49725U 21115B   22075.83334491  .00032476  00000-0  20499-2 0  9996,2 49725  53.2175 195.7203 0001969  40.0865 349.3196 15.08827908  3597,6917.917,95.438,541.144,538.42,0.0
49725.0,STARLINK-3218,PAYLOAD,2022-03-17 12:00:00,15.08870551,0.0001855,53.2178,192.7272,44.7125,7.8876,-0.0018296,-0.00029313,0.0,0 STARLINK-3218,1 49725U 21115B   22076.50001157 -.00029313  00000-0 -18296-2 0  9991,2 49725  53.2178 192.7272 0001855  44.7125   7.8876 15.08870551 17269,6917.7869999999975,95.436,540.935,538.369,0.0
49725.0,STARLINK-3218,PAYLOAD,2022-03-17 14:00:01,15.08865975,0.0001916,53.2176,192.3535,43.3477,102.1592,-0.0017992,-0.00028829,0.0,0 STARLINK-3218,1 49725U 21115B   22076.58334491 -.00028829  00000-0 -17992-2 0  9992,2 49725  53.2176 192.3535 0001916  43.3477 102.1592 15.08865975  3609,6917.801,95.436,540.991,538.341,0.0
